[{"OBJECT_NAME":"TIANMU-1 10","OBJECT_ID":"2023-101D","EPOCH":"2026-03-04T14:19:56.580096","MEAN_MOTION":15.29234858,"ECCENTRICITY":0.00070061,"INCLINATION":97.2758,"RA_OF_ASC_NODE":116.8538,"ARG_OF_PERICENTER":146.9639,"MEAN_ANOMALY":213.204,"EPHEMERIS_TYPE":0,"CLASSIFICATION_TYPE":"U","NORAD_CAT_ID":57402,"ELEMENT_SET_NO":999,"REV_AT_EPOCH":14565,"BSTAR":0.00037961287,"MEAN_MOTION_DOT":0.00010706,"MEAN_MOTION_DDOT":0},{"OBJECT_NAME":"FENGYUN 3F","OBJECT_ID":"2023-111A","EPOCH":"2026-03-04T14:44:45.178656","MEAN_MOTION":14.19918116,"ECCENTRICITY":0.00013216,"INCLINATION":98.6938,"RA_OF_ASC_NODE":135.5339,"ARG_OF_PERICENTER":82.0899,"MEAN_ANOMALY":278.0428,"EPHEMERIS_TYPE":0,"CLASSIFICATION_TYPE":"U","NORAD_CAT_ID":57490,"ELEMENT_SET_NO":999,"REV_AT_EPOCH":13402,"BSTAR":7.0920384e-5,"MEAN_MOTION_DOT":1.07e-6,"MEAN_MOTION_DDOT":0},{"OBJECT_NAME":"ARKTIKA-M 2","OBJECT_ID":"2023-198A","EPOCH":"2026-03-03T01:58:58.035360","MEAN_MOTION":2.00614888,"ECCENTRICITY":0.68769635,"INCLINATION":63.2203,"RA_OF_ASC_NODE":166.1216,"ARG_OF_PERICENTER":267.7841,"MEAN_ANOMALY":18.8417,"EPHEMERIS_TYPE":0,"CLASSIFICATION_TYPE":"U","NORAD_CAT_ID":58584,"ELEMENT_SET_NO":999,"REV_AT_EPOCH":1619,"BSTAR":0,"MEAN_MOTION_DOT":1.37e-6,"MEAN_MOTION_DDOT":0},{"OBJECT_NAME":"TIANMU-1 11","OBJECT_ID":"2023-205A","EPOCH":"2026-03-04T15:00:25.839648","MEAN_MOTION":15.25798627,"ECCENTRICITY":0.00096158,"INCLINATION":97.3546,"RA_OF_ASC_NODE":86.858,"ARG_OF_PERICENTER":25.4961,"MEAN_ANOMALY":334.675,"EPHEMERIS_TYPE":0,"CLASSIFICATION_TYPE":"U","NORAD_CAT_ID":58645,"ELEMENT_SET_NO":999,"REV_AT_EPOCH":12157,"BSTAR":0.00036425703,"MEAN_MOTION_DOT":9.252e-5,"MEAN_MOTION_DDOT":0},{"OBJECT_NAME":"TIANMU-1 12","OBJECT_ID":"2023-205B","EPOCH":"2026-03-04T14:12:19.218240","MEAN_MOTION":15.25721591,"ECCENTRICITY":0.00073862,"INCLINATION":97.3534,"RA_OF_ASC_NODE":86.6054,"ARG_OF_PERICENTER":12.3961,"MEAN_ANOMALY":347.7457,"EPHEMERIS_TYPE":0,"CLASSIFICATION_TYPE":"U","NORAD_CAT_ID":58646,"ELEMENT_SET_NO":999,"REV_AT_EPOCH":12155,"BSTAR":0.00036920183,"MEAN_MOTION_DOT":9.352e-5,"MEAN_MOTION_DDOT":0},{"OBJECT_NAME":"TIANMU-1 13","OBJECT_ID":"2023-205C","EPOCH":"2026-03-04T14:57:03.034656","MEAN_MOTION":15.25771001,"ECCENTRICITY":0.00070186,"INCLINATION":97.3562,"RA_OF_ASC_NODE":86.8726,"ARG_OF_PERICENTER":353.0798,"MEAN_ANOMALY":7.0342,"EPHEMERIS_TYPE":0,"CLASSIFICATION_TYPE":"U","NORAD_CAT_ID":58647,"ELEMENT_SET_NO":999,"REV_AT_EPOCH":12155,"BSTAR":0.00037586731,"MEAN_MOTION_DOT":9.536e-5,"MEAN_MOTION_DDOT":0},{"OBJECT_NAME":"TIANMU-1 14","OBJECT_ID":"2023-205D","EPOCH":"2026-03-04T14:34:43.259232","MEAN_MOTION":15.25748648,"ECCENTRICITY":0.00079421,"INCLINATION":97.3496,"RA_OF_ASC_NODE":86.1308,"ARG_OF_PERICENTER":356.34,"MEAN_ANOMALY":3.7779,"EPHEMERIS_TYPE":0,"CLASSIFICATION_TYPE":"U","NORAD_CAT_ID":58648,"ELEMENT_SET_NO":999,"REV_AT_EPOCH":12155,"BSTAR":0.00039498904,"MEAN_MOTION_DOT":0.00010021,"MEAN_MOTION_DDOT":0},{"OBJECT_NAME":"TIANMU-1 19","OBJECT_ID":"2023-208A","EPOCH":"2026-03-04T15:04:02.512704","MEAN_MOTION":15.297049,"ECCENTRICITY":0.00042455,"INCLINATION":97.4389,"RA_OF_ASC_NODE":179.6104,"ARG_OF_PERICENTER":338.8835,"MEAN_ANOMALY":21.2229,"EPHEMERIS_TYPE":0,"CLASSIFICATION_TYPE":"U","NORAD_CAT_ID":58660,"ELEMENT_SET_NO":999,"REV_AT_EPOCH":12133,"BSTAR":0.00047446313,"MEAN_MOTION_DOT":0.00013591,"MEAN_MOTION_DDOT":0},{"OBJECT_NAME":"TIANMU-1 20","OBJECT_ID":"2023-208B","EPOCH":"2026-03-04T14:47:06.772704","MEAN_MOTION":15.30893982,"ECCENTRICITY":0.00065758,"INCLINATION":97.4328,"RA_OF_ASC_NODE":180.1271,"ARG_OF_PERICENTER":345.0757,"MEAN_ANOMALY":15.0289,"EPHEMERIS_TYPE":0,"CLASSIFICATION_TYPE":"U","NORAD_CAT_ID":58661,"ELEMENT_SET_NO":999,"REV_AT_EPOCH":12141,"BSTAR":0.00046303002,"MEAN_MOTION_DOT":0.00013764,"MEAN_MOTION_DDOT":0},{"OBJECT_NAME":"TIANMU-1 21","OBJECT_ID":"2023-208C","EPOCH":"2026-03-04T14:54:30.631968","MEAN_MOTION":15.32884514,"ECCENTRICITY":0.00063405,"INCLINATION":97.4382,"RA_OF_ASC_NODE":182.3876,"ARG_OF_PERICENTER":338.4538,"MEAN_ANOMALY":21.6437,"EPHEMERIS_TYPE":0,"CLASSIFICATION_TYPE":"U","NORAD_CAT_ID":58662,"ELEMENT_SET_NO":999,"REV_AT_EPOCH":12153,"BSTAR":0.00050494088,"MEAN_MOTION_DOT":0.00015983,"MEAN_MOTION_DDOT":0},{"OBJECT_NAME":"TIANMU-1 22","OBJECT_ID":"2023-208D","EPOCH":"2026-03-04T13:53:25.147392","MEAN_MOTION":15.29330644,"ECCENTRICITY":0.00035285,"INCLINATION":97.4383,"RA_OF_ASC_NODE":179.5755,"ARG_OF_PERICENTER":12.6062,"MEAN_ANOMALY":347.5266,"EPHEMERIS_TYPE":0,"CLASSIFICATION_TYPE":"U","NORAD_CAT_ID":58663,"ELEMENT_SET_NO":999,"REV_AT_EPOCH":12133,"BSTAR":0.00047838392,"MEAN_MOTION_DOT":0.00013546,"MEAN_MOTION_DDOT":0},{"OBJECT_NAME":"TIANMU-1 15","OBJECT_ID":"2024-004A","EPOCH":"2026-03-04T16:05:55.900896","MEAN_MOTION":15.25744966,"ECCENTRICITY":0.00070803,"INCLINATION":97.4661,"RA_OF_ASC_NODE":249.9162,"ARG_OF_PERICENTER":7.7118,"MEAN_ANOMALY":352.4227,"EPHEMERIS_TYPE":0,"CLASSIFICATION_TYPE":"U","NORAD_CAT_ID":58700,"ELEMENT_SET_NO":999,"REV_AT_EPOCH":11983,"BSTAR":0.00037741918,"MEAN_MOTION_DOT":9.567e-5,"MEAN_MOTION_DDOT":0},{"OBJECT_NAME":"TIANMU-1 16","OBJECT_ID":"2024-004B","EPOCH":"2026-03-04T15:42:18.642816","MEAN_MOTION":15.25778661,"ECCENTRICITY":0.00056176,"INCLINATION":97.4602,"RA_OF_ASC_NODE":249.2265,"ARG_OF_PERICENTER":13.7054,"MEAN_ANOMALY":346.4335,"EPHEMERIS_TYPE":0,"CLASSIFICATION_TYPE":"U","NORAD_CAT_ID":58701,"ELEMENT_SET_NO":999,"REV_AT_EPOCH":11983,"BSTAR":0.00040131751,"MEAN_MOTION_DOT":0.00010186,"MEAN_MOTION_DDOT":0},{"OBJECT_NAME":"TIANMU-1 17","OBJECT_ID":"2024-004C","EPOCH":"2026-03-04T15:17:02.315904","MEAN_MOTION":15.25816174,"ECCENTRICITY":0.00048592,"INCLINATION":97.4635,"RA_OF_ASC_NODE":249.6603,"ARG_OF_PERICENTER":17.3436,"MEAN_ANOMALY":342.7967,"EPHEMERIS_TYPE":0,"CLASSIFICATION_TYPE":"U","NORAD_CAT_ID":58702,"ELEMENT_SET_NO":999,"REV_AT_EPOCH":11982,"BSTAR":0.00040881344,"MEAN_MOTION_DOT":0.00010389,"MEAN_MOTION_DDOT":0},{"OBJECT_NAME":"TIANMU-1 18","OBJECT_ID":"2024-004D","EPOCH":"2026-03-04T14:55:26.048064","MEAN_MOTION":15.25765195,"ECCENTRICITY":0.00042631,"INCLINATION":97.4652,"RA_OF_ASC_NODE":249.8559,"ARG_OF_PERICENTER":18.5306,"MEAN_ANOMALY":341.6086,"EPHEMERIS_TYPE":0,"CLASSIFICATION_TYPE":"U","NORAD_CAT_ID":58703,"ELEMENT_SET_NO":999,"REV_AT_EPOCH":11982,"BSTAR":0.00038163677,"MEAN_MOTION_DOT":9.677e-5,"MEAN_MOTION_DDOT":0},{"OBJECT_NAME":"INSAT-3DS","OBJECT_ID":"2024-033A","EPOCH":"2026-03-04T15:45:11.423808","MEAN_MOTION":1.00270314,"ECCENTRICITY":0.0002324,"INCLINATION":0.0552,"RA_OF_ASC_NODE":263.6074,"ARG_OF_PERICENTER":95.0438,"MEAN_ANOMALY":122.1033,"EPHEMERIS_TYPE":0,"CLASSIFICATION_TYPE":"U","NORAD_CAT_ID":58990,"ELEMENT_SET_NO":999,"REV_AT_EPOCH":4602,"BSTAR":0,"MEAN_MOTION_DOT":-1.66e-6,"MEAN_MOTION_DDOT":0},{"OBJECT_NAME":"METEOR-M2 4","OBJECT_ID":"2024-039A","EPOCH":"2026-03-04T15:42:55.296288","MEAN_MOTION":14.22416116,"ECCENTRICITY":0.00080871,"INCLINATION":98.6898,"RA_OF_ASC_NODE":24.3337,"ARG_OF_PERICENTER":108.8962,"MEAN_ANOMALY":251.3093,"EPHEMERIS_TYPE":0,"CLASSIFICATION_TYPE":"U","NORAD_CAT_ID":59051,"ELEMENT_SET_NO":999,"REV_AT_EPOCH":10440,"BSTAR":3.0944101e-5,"MEAN_MOTION_DOT":2.5e-7,"MEAN_MOTION_DDOT":0}]
