TIANMU-1 10             
1 57402U 23101D   26063.59718264  .00010706  00000+0  37961-3 0  9996
2 57402  97.2758 116.8538 0007006 146.9639 213.2040 15.29234858145651
FENGYUN 3F              
1 57490U 23111A   26063.61441179  .00000107  00000+0  70920-4 0  9992
2 57490  98.6938 135.5339 0001321  82.0899 278.0428 14.19918116134024
ARKTIKA-M 2             
1 58584U 23198A   26062.08261615  .00000137  00000+0  00000+0 0  9997
2 58584  63.2203 166.1216 6876963 267.7841  18.8417  2.00614888 16194
TIANMU-1 11             
1 58645U 23205A   26063.62529907  .00009252  00000+0  36426-3 0  9998
2 58645  97.3546  86.8580 0009615  25.4961 334.6750 15.25798627121573
TIANMU-1 12             
1 58646U 23205B   26063.59188910  .00009352  00000+0  36920-3 0  9990
2 58646  97.3534  86.6054 0007386  12.3961 347.7457 15.25721591121556
TIANMU-1 13             
1 58647U 23205C   26063.62295179  .00009536  00000+0  37587-3 0  9995
2 58647  97.3562  86.8726 0007018 353.0798   7.0342 15.25771001121551
TIANMU-1 14             
1 58648U 23205D   26063.60744513  .00010021  00000+0  39499-3 0  9990
2 58648  97.3496  86.1308 0007942 356.3400   3.7779 15.25748648121557
TIANMU-1 19             
1 58660U 23208A   26063.62780686  .00013591  00000+0  47446-3 0  9996
2 58660  97.4389 179.6104 0004245 338.8835  21.2229 15.29704900121333
TIANMU-1 20             
1 58661U 23208B   26063.61605061  .00013764  00000+0  46303-3 0  9992
2 58661  97.4328 180.1271 0006575 345.0757  15.0289 15.30893982121417
TIANMU-1 21             
1 58662U 23208C   26063.62118787  .00015983  00000+0  50494-3 0  9999
2 58662  97.4382 182.3876 0006340 338.4538  21.6437 15.32884514121530
TIANMU-1 22             
1 58663U 23208D   26063.57876328  .00013546  00000+0  47838-3 0  9997
2 58663  97.4383 179.5755 0003528  12.6062 347.5266 15.29330644121338
TIANMU-1 15             
1 58700U 24004A   26063.67078589  .00009567  00000+0  37742-3 0  9999
2 58700  97.4661 249.9162 0007080   7.7118 352.4227 15.25744966119833
TIANMU-1 16             
1 58701U 24004B   26063.65438244  .00010186  00000+0  40132-3 0  9992
2 58701  97.4602 249.2265 0005617  13.7054 346.4335 15.25778661119838
TIANMU-1 17             
1 58702U 24004C   26063.63683236  .00010389  00000+0  40881-3 0  9990
2 58702  97.4635 249.6603 0004859  17.3436 342.7967 15.25816174119827
TIANMU-1 18             
1 58703U 24004D   26063.62182926  .00009677  00000+0  38164-3 0  9999
2 58703  97.4652 249.8559 0004263  18.5306 341.6086 15.25765195119823
INSAT-3DS               
1 58990U 24033A   26063.65638222 -.00000166  00000+0  00000+0 0  9996
2 58990   0.0552 263.6074 0002324  95.0438 122.1033  1.00270314 46025
METEOR-M2 4             
1 59051U 24039A   26063.65480667  .00000025  00000+0  30944-4 0  9997
2 59051  98.6898  24.3337 0008087 108.8962 251.3093 14.22416116104409
